[{"OBJECT_NAME":"QIANFAN-86","OBJECT_ID":"2025-046P","EPOCH":"2026-03-09T21:02:57.100992","MEAN_MOTION":13.5100289,"ECCENTRICITY":0.00093362,"INCLINATION":88.9754,"RA_OF_ASC_NODE":310.785,"ARG_OF_PERICENTER":237.3248,"MEAN_ANOMALY":122.7003,"EPHEMERIS_TYPE":0,"CLASSIFICATION_TYPE":"U","NORAD_CAT_ID":63172,"ELEMENT_SET_NO":999,"REV_AT_EPOCH":5931,"BSTAR":0.00022624923,"MEAN_MOTION_DOT":1.58e-6,"MEAN_MOTION_DDOT":0},{"OBJECT_NAME":"FENGYUN 1C DEB","OBJECT_ID":"1999-025ESB","EPOCH":"2026-03-02T10:00:53.944128","MEAN_MOTION":13.94641295,"ECCENTRICITY":0.02258203,"INCLINATION":98.6077,"RA_OF_ASC_NODE":132.8891,"ARG_OF_PERICENTER":288.006,"MEAN_ANOMALY":69.6612,"EPHEMERIS_TYPE":0,"CLASSIFICATION_TYPE":"U","NORAD_CAT_ID":38492,"ELEMENT_SET_NO":999,"REV_AT_EPOCH":57114,"BSTAR":0.0034742976,"MEAN_MOTION_DOT":5.706e-5,"MEAN_MOTION_DDOT":0}]
